[{"OBJECT_NAME":"HAWK-2C","OBJECT_ID":"2021-006CT","EPOCH":"2026-03-09T16:13:22.454976","MEAN_MOTION":15.33286436,"ECCENTRICITY":0.0006943,"INCLINATION":97.2417,"RA_OF_ASC_NODE":114.9961,"ARG_OF_PERICENTER":184.0877,"MEAN_ANOMALY":176.031,"EPHEMERIS_TYPE":0,"CLASSIFICATION_TYPE":"U","NORAD_CAT_ID":47502,"ELEMENT_SET_NO":999,"REV_AT_EPOCH":28424,"BSTAR":0.00025492914,"MEAN_MOTION_DOT":8.129e-5,"MEAN_MOTION_DDOT":0},{"OBJECT_NAME":"STARLINK-2535","OBJECT_ID":"2021-036V","EPOCH":"2026-03-09T06:36:55.569888","MEAN_MOTION":15.30191983,"ECCENTRICITY":0.00015185,"INCLINATION":53.1607,"RA_OF_ASC_NODE":77.4642,"ARG_OF_PERICENTER":97.2274,"MEAN_ANOMALY":262.89,"EPHEMERIS_TYPE":0,"CLASSIFICATION_TYPE":"U","NORAD_CAT_ID":48295,"ELEMENT_SET_NO":999,"REV_AT_EPOCH":26834,"BSTAR":-1.473769e-6,"MEAN_MOTION_DOT":-4.03e-6,"MEAN_MOTION_DDOT":0}]
